{
  "type": "FeatureCollection",
  "features": [
    {
      "type": "Feature",
      "properties": {
        "norad_id": 35744,
        "name": "IRIDIUM 33 DEB",
        "group": "iridium-33-debris",
        "lat": -31.08819495663013,
        "lon": -36.838468838994125,
        "alt_km": 674.4361349832152,
        "timestamp": "2025-12-12T20:43:07.420707+00:00",
        "meta_object_name": "IRIDIUM 33 DEB",
        "meta_object_id": "1997-051RX",
        "meta_epoch": "2025-12-12T06:10:01.237728",
        "meta_mean_motion": 14.70987417,
        "meta_eccentricity": 0.00202378,
        "meta_inclination": 86.3289,
        "meta_ra_of_asc_node": 325.654,
        "meta_arg_of_pericenter": 193.8889,
        "meta_mean_anomaly": 166.1774,
        "meta_ephemeris_type": 0,
        "meta_classification_type": "U",
        "meta_norad_cat_id": 35744,
        "meta_element_set_no": 999,
        "meta_rev_at_epoch": 87324,
        "meta_bstar": 0.0017771396,
        "meta_mean_motion_dot": 0.00010961,
        "meta_mean_motion_ddot": 0,
        "tle_line1": "1 35744U 97051RX  25346.25695877  .00010961  00000+0  17771-2 0  9995",
        "tle_line2": "2 35744  86.3289 325.6540 0020237 193.8889 166.1774 14.70987417873240"
      },
      "geometry": {
        "type": "Point",
        "coordinates": [
          -36.838468838994125,
          -31.08819495663013
        ]
      }
    },
    {
      "type": "Feature",
      "properties": {
        "norad_id": 35797,
        "name": "IRIDIUM 33 DEB",
        "group": "iridium-33-debris",
        "lat": 61.488567728756294,
        "lon": -23.3093502959156,
        "alt_km": 613.9892009373925,
        "timestamp": "2025-12-12T20:43:07.420717+00:00",
        "meta_object_name": "IRIDIUM 33 DEB",
        "meta_object_id": "1997-051SF",
        "meta_epoch": "2025-12-12T05:51:50.415264",
        "meta_mean_motion": 14.82743783,
        "meta_eccentricity": 0.00133704,
        "meta_inclination": 86.3362,
        "meta_ra_of_asc_node": 330.2007,
        "meta_arg_of_pericenter": 149.5686,
        "meta_mean_anomaly": 210.6315,
        "meta_ephemeris_type": 0,
        "meta_classification_type": "U",
        "meta_norad_cat_id": 35797,
        "meta_element_set_no": 999,
        "meta_rev_at_epoch": 87333,
        "meta_bstar": 0.0026694194,
        "meta_mean_motion_dot": 0.00021655,
        "meta_mean_motion_ddot": 0,
        "tle_line1": "1 35797U 97051SF  25346.24433351  .00021655  00000+0  26694-2 0  9995",
        "tle_line2": "2 35797  86.3362 330.2007 0013370 149.5686 210.6315 14.82743783873338"
      },
      "geometry": {
        "type": "Point",
        "coordinates": [
          -23.3093502959156,
          61.488567728756294
        ]
      }
    },
    {
      "type": "Feature",
      "properties": {
        "norad_id": 35806,
        "name": "IRIDIUM 33 DEB",
        "group": "iridium-33-debris",
        "lat": -3.7433860596914323,
        "lon": 20.33454159365114,
        "alt_km": 702.9429499228336,
        "timestamp": "2025-12-12T20:43:07.420727+00:00",
        "meta_object_name": "IRIDIUM 33 DEB",
        "meta_object_id": "1997-051SQ",
        "meta_epoch": "2025-12-10T20:56:47.284800",
        "meta_mean_motion": 14.5731398,
        "meta_eccentricity": 0.0016091,
        "meta_inclination": 86.344,
        "meta_ra_of_asc_node": 21.4504,
        "meta_arg_of_pericenter": 81.1516,
        "meta_mean_anomaly": 279.1514,
        "meta_ephemeris_type": 0,
        "meta_classification_type": "U",
        "meta_norad_cat_id": 35806,
        "meta_element_set_no": 999,
        "meta_rev_at_epoch": 86297,
        "meta_bstar": 0.0016785,
        "meta_mean_motion_dot": 7.632e-05,
        "meta_mean_motion_ddot": 0,
        "tle_line1": "1 35806U 97051SQ  25344.87276950  .00007632  00000+0  16785-2 0  9992",
        "tle_line2": "2 35806  86.3440  21.4504 0016091  81.1516 279.1514 14.57313980862976"
      },
      "geometry": {
        "type": "Point",
        "coordinates": [
          20.33454159365114,
          -3.7433860596914323
        ]
      }
    },
    {
      "type": "Feature",
      "properties": {
        "norad_id": 35809,
        "name": "IRIDIUM 33 DEB",
        "group": "iridium-33-debris",
        "lat": 9.11606373607901,
        "lon": -24.1166447084347,
        "alt_km": 648.7317018026706,
        "timestamp": "2025-12-12T20:43:07.420738+00:00",
        "meta_object_name": "IRIDIUM 33 DEB",
        "meta_object_id": "1997-051ST",
        "meta_epoch": "2025-12-10T16:35:56.421600",
        "meta_mean_motion": 14.75629145,
        "meta_eccentricity": 0.00097103,
        "meta_inclination": 86.329,
        "meta_ra_of_asc_node": 336.2813,
        "meta_arg_of_pericenter": 251.0565,
        "meta_mean_anomaly": 108.9602,
        "meta_ephemeris_type": 0,
        "meta_classification_type": "U",
        "meta_norad_cat_id": 35809,
        "meta_element_set_no": 999,
        "meta_rev_at_epoch": 86777,
        "meta_bstar": 0.0026432017,
        "meta_mean_motion_dot": 0.00018102,
        "meta_mean_motion_ddot": 0,
        "tle_line1": "1 35809U 97051ST  25344.69162525  .00018102  00000+0  26432-2 0  9991",
        "tle_line2": "2 35809  86.3290 336.2813 0009710 251.0565 108.9602 14.75629145867777"
      },
      "geometry": {
        "type": "Point",
        "coordinates": [
          -24.1166447084347,
          9.11606373607901
        ]
      }
    },
    {
      "type": "Feature",
      "properties": {
        "norad_id": 35846,
        "name": "IRIDIUM 33 DEB",
        "group": "iridium-33-debris",
        "lat": 43.952183716418546,
        "lon": -124.71597637563173,
        "alt_km": 733.3902030754016,
        "timestamp": "2025-12-12T20:43:07.420748+00:00",
        "meta_object_name": "IRIDIUM 33 DEB",
        "meta_object_id": "1997-051SW",
        "meta_epoch": "2025-12-10T23:09:37.938816",
        "meta_mean_motion": 14.43148066,
        "meta_eccentricity": 0.0018649,
        "meta_inclination": 86.3748,
        "meta_ra_of_asc_node": 59.598,
        "meta_arg_of_pericenter": 175.7823,
        "meta_mean_anomaly": 184.3539,
        "meta_ephemeris_type": 0,
        "meta_classification_type": "U",
        "meta_norad_cat_id": 35846,
        "meta_element_set_no": 999,
        "meta_rev_at_epoch": 71303,
        "meta_bstar": 0.00091839,
        "meta_mean_motion_dot": 3.109e-05,
        "meta_mean_motion_ddot": 0,
        "tle_line1": "1 35846U 97051SW  25344.96502244  .00003109  00000+0  91839-3 0  9993",
        "tle_line2": "2 35846  86.3748  59.5980 0018649 175.7823 184.3539 14.43148066713035"
      },
      "geometry": {
        "type": "Point",
        "coordinates": [
          -124.71597637563173,
          43.952183716418546
        ]
      }
    },
    {
      "type": "Feature",
      "properties": {
        "norad_id": 35848,
        "name": "IRIDIUM 33 DEB",
        "group": "iridium-33-debris",
        "lat": -36.929989069935715,
        "lon": 13.349683551742842,
        "alt_km": 643.8641609288088,
        "timestamp": "2025-12-12T20:43:07.420760+00:00",
        "meta_object_name": "IRIDIUM 33 DEB",
        "meta_object_id": "1997-051SY",
        "meta_epoch": "2025-12-11T20:31:22.881216",
        "meta_mean_motion": 14.78606603,
        "meta_eccentricity": 0.0007707,
        "meta_inclination": 86.3908,
        "meta_ra_of_asc_node": 16.5221,
        "meta_arg_of_pericenter": 192.3234,
        "meta_mean_anomaly": 167.7799,
        "meta_ephemeris_type": 0,
        "meta_classification_type": "U",
        "meta_norad_cat_id": 35848,
        "meta_element_set_no": 999,
        "meta_rev_at_epoch": 66677,
        "meta_bstar": 0.0023841,
        "meta_mean_motion_dot": 0.00017502,
        "meta_mean_motion_ddot": 0,
        "tle_line1": "1 35848U 97051SY  25345.85512594  .00017502  00000+0  23841-2 0  9992",
        "tle_line2": "2 35848  86.3908  16.5221 0007707 192.3234 167.7799 14.78606603666775"
      },
      "geometry": {
        "type": "Point",
        "coordinates": [
          13.349683551742842,
          -36.929989069935715
        ]
      }
    },
    {
      "type": "Feature",
      "properties": {
        "norad_id": 35850,
        "name": "IRIDIUM 33 DEB",
        "group": "iridium-33-debris",
        "lat": -70.66375067927686,
        "lon": -26.294874800504424,
        "alt_km": 641.4392110483332,
        "timestamp": "2025-12-12T20:43:07.420801+00:00",
        "meta_object_name": "IRIDIUM 33 DEB",
        "meta_object_id": "1997-051TA",
        "meta_epoch": "2025-12-06T07:30:15.621984",
        "meta_mean_motion": 14.78601393,
        "meta_eccentricity": 0.00083892,
        "meta_inclination": 86.3487,
        "meta_ra_of_asc_node": 347.1693,
        "meta_arg_of_pericenter": 210.267,
        "meta_mean_anomaly": 149.8067,
        "meta_ephemeris_type": 0,
        "meta_classification_type": "U",
        "meta_norad_cat_id": 35850,
        "meta_element_set_no": 999,
        "meta_rev_at_epoch": 71262,
        "meta_bstar": 0.0028291764,
        "meta_mean_motion_dot": 0.00020775,
        "meta_mean_motion_ddot": 0,
        "tle_line1": "1 35850U 97051TA  25340.31268081  .00020775  00000+0  28292-2 0  9991",
        "tle_line2": "2 35850  86.3487 347.1693 0008389 210.2670 149.8067 14.78601393712623"
      },
      "geometry": {
        "type": "Point",
        "coordinates": [
          -26.294874800504424,
          -70.66375067927686
        ]
      }
    }
  ]
}